{
  "type": "FeatureCollection",
  "generator": "overpass-turbo",
  "copyright": "The data included in this document is from www.openstreetmap.org. The data is made available under ODbL.",
  "timestamp": "2025-01-22T22:22:56Z",
  "features": [
    {
      "type": "Feature",
      "properties": {
        "@id": "node/258856843",
        "name": "Main Street Station",
        "operator": "Disneyland",
        "public_transport": "station",
        "railway": "station",
        "ref:FR:STIF": "412814",
        "source": "STIF - 12/2016",
        "tourism": "attraction",
        "website": "http://parks.disneylandparis.co.uk/disneyland-park/lands/main-street-usa/attractions/disneyland-railroad.xhtml",
        "wheelchair": "limited"
      },
      "geometry": {
        "type": "Point",
        "coordinates": [
          2.7791228,
          48.8707952
        ]
      },
      "id": "node/258856843"
    },
    {
      "type": "Feature",
      "properties": {
        "@id": "node/258856858",
        "addr:city": "Marne-la-Vallée",
        "addr:postcode": "77700",
        "addr:street": "Frontierland",
        "name": "Frontierland Depot",
        "operator": "Disneyland Paris Transport",
        "public_transport": "station",
        "railway": "station",
        "source": "survey",
        "tourism": "attraction",
        "train": "yes",
        "website": "http://parks.disneylandparis.co.uk/disneyland-park/lands/frontierland/attractions/disneyland-railroad.xhtml",
        "wheelchair": "limited"
      },
      "geometry": {
        "type": "Point",
        "coordinates": [
          2.7721388,
          48.8701941
        ]
      },
      "id": "node/258856858"
    },
    {
      "type": "Feature",
      "properties": {
        "@id": "node/258856870",
        "name": "Fantasyland Station",
        "operator": "Disneyland",
        "public_transport": "station",
        "railway": "station",
        "source": "survey",
        "tourism": "attraction",
        "wheelchair": "limited"
      },
      "geometry": {
        "type": "Point",
        "coordinates": [
          2.7735731,
          48.8746234
        ]
      },
      "id": "node/258856870"
    },
    {
      "type": "Feature",
      "properties": {
        "@id": "node/258856876",
        "name": "Discoveryland Station",
        "operator": "Disneyland",
        "public_transport": "station",
        "railway": "station",
        "tourism": "attraction",
        "wheelchair": "limited"
      },
      "geometry": {
        "type": "Point",
        "coordinates": [
          2.7794141,
          48.874721
        ]
      },
      "id": "node/258856876"
    },
    {
      "type": "Feature",
      "properties": {
        "@id": "node/905816644",
        "abandoned": "yes",
        "name": "River Rogue Keelboats",
        "source": "survey",
        "tourism": "attraction"
      },
      "geometry": {
        "type": "Point",
        "coordinates": [
          2.7744487,
          48.8705677
        ]
      },
      "id": "node/905816644"
    },
    {
      "type": "Feature",
      "properties": {
        "@id": "node/905816849",
        "name": "La Tanière du Dragon",
        "name:en": "Dragon's Lair",
        "source": "survey",
        "tourism": "attraction",
        "website": "https://www.disneylandparis.fr/attractions/parc-disneyland/la-taniere-du-dragon/",
        "wheelchair": "yes",
        "wikidata": "Q28126673"
      },
      "geometry": {
        "type": "Point",
        "coordinates": [
          2.7757734,
          48.8730526
        ]
      },
      "id": "node/905816849"
    },
    {
      "type": "Feature",
      "properties": {
        "@id": "node/905816888",
        "attraction": "maze",
        "name": "Alice's Curious Labyrinth",
        "tourism": "attraction",
        "website": "https://www.disneylandparis.fr/attractions/parc-disneyland/alices-curious-labyrinth/",
        "wheelchair": "limited",
        "wikidata": "Q2836495",
        "wikipedia": "fr:Alice's Curious Labyrinth"
      },
      "geometry": {
        "type": "Point",
        "coordinates": [
          2.7744865,
          48.87449
        ]
      },
      "id": "node/905816888"
    },
    {
      "type": "Feature",
      "properties": {
        "@id": "node/905816995",
        "attraction": "dark_ride",
        "duration": "00:04:30",
        "name": "Buzz Lightyear Laser Blast",
        "old:wikipedia": "Visionarium",
        "old_name": "Visionarium",
        "source": "survey;knowledge",
        "tourism": "attraction",
        "website": "https://www.disneylandparis.fr/attractions/parc-disneyland/buzz-lightyear-laser-blast/",
        "wheelchair": "yes",
        "wikidata": "Q2916664",
        "wikipedia": "fr:Buzz Lightyear's Astro Blasters"
      },
      "geometry": {
        "type": "Point",
        "coordinates": [
          2.7778416,
          48.8735115
        ]
      },
      "id": "node/905816995"
    },
    {
      "type": "Feature",
      "properties": {
        "@id": "node/1011446599",
        "duration": "00:03:40",
        "name": "Big Thunder Mountain",
        "source": "survey",
        "tourism": "attraction",
        "website": "https://www.disneylandparis.fr/attractions/parc-disneyland/big-thunder-mountain/",
        "wheelchair": "limited",
        "wikidata": "Q859406"
      },
      "geometry": {
        "type": "Point",
        "coordinates": [
          2.7746447,
          48.8713337
        ]
      },
      "id": "node/1011446599"
    },
    {
      "type": "Feature",
      "properties": {
        "@id": "node/1012678087",
        "attraction": "boat_ride",
        "name": "Le Pays des Contes de Fées",
        "name:de": "Märchenland",
        "name:en": "Land of the Fairy Tales",
        "source": "survey",
        "tourism": "attraction",
        "website": "https://www.disneylandparis.fr/attractions/parc-disneyland/le-pays-des-contes-de-fees/",
        "wheelchair": "limited",
        "wikidata": "Q3499909",
        "wikipedia": "fr:Storybook Land Canal#Parc Disneyland Paris"
      },
      "geometry": {
        "type": "Point",
        "coordinates": [
          2.774695,
          48.8753427
        ]
      },
      "id": "node/1012678087"
    },
    {
      "type": "Feature",
      "properties": {
        "@id": "node/1012694152",
        "duration": "00:01:30",
        "name": "Casey Jr. - Le Petit Train Du Cirque",
        "name:en": "Casey Jr. - The little circus train",
        "source": "survey",
        "tourism": "attraction",
        "website": "https://www.disneylandparis.fr/attractions/parc-disneyland/casey-jr-le-petit-train-du-cirque/",
        "wheelchair": "limited",
        "wikidata": "Q2521960",
        "wikipedia": "fr:Casey Jr Circus Train#Disneyland Paris"
      },
      "geometry": {
        "type": "Point",
        "coordinates": [
          2.7741758,
          48.8753865
        ]
      },
      "id": "node/1012694152"
    },
    {
      "type": "Feature",
      "properties": {
        "@id": "node/1014178589",
        "attraction": "show",
        "duration": "00:15:00",
        "name": "Stitch Live",
        "source": "survey",
        "tourism": "attraction",
        "website": "https://www.disneylandparis.fr/divertissements/parc-walt-disney-studios/stitch-live/",
        "wheelchair": "yes",
        "wikidata": "Q3100524",
        "wikipedia": "fr:Stitch Live"
      },
      "geometry": {
        "type": "Point",
        "coordinates": [
          2.7800775,
          48.8665517
        ]
      },
      "id": "node/1014178589"
    },
    {
      "type": "Feature",
      "properties": {
        "@id": "node/1014178645",
        "name": "Studio D",
        "tourism": "attraction"
      },
      "geometry": {
        "type": "Point",
        "coordinates": [
          2.7802429,
          48.8666316
        ]
      },
      "id": "node/1014178645"
    },
    {
      "type": "Feature",
      "properties": {
        "@id": "node/2932069973",
        "name": "Horse-Drawn Streetcars",
        "public_transport": "stop_position",
        "railway": "tram_stop",
        "tourism": "attraction",
        "tram": "yes",
        "website": "https://www.disneylandparis.fr/parcs-et-activites/attractions/parc-disneyland/horse-drawn-streetcars.html"
      },
      "geometry": {
        "type": "Point",
        "coordinates": [
          2.7788412,
          48.8710741
        ]
      },
      "id": "node/2932069973"
    },
    {
      "type": "Feature",
      "properties": {
        "@id": "node/2999825244",
        "name": "Main Street Vehicles",
        "tourism": "attraction",
        "website": "https://www.disneylandparis.fr/parcs-et-activites/attractions/parc-disneyland/main-street-vehicles.html"
      },
      "geometry": {
        "type": "Point",
        "coordinates": [
          2.7784603,
          48.8709089
        ]
      },
      "id": "node/2999825244"
    },
    {
      "type": "Feature",
      "properties": {
        "@id": "node/3065584403",
        "addr:postcode": "77700",
        "name": "Le Haricot magique",
        "name:en": "The Beanstalk",
        "name:fr": "le Haricot magique",
        "natural": "tree",
        "tourism": "attraction"
      },
      "geometry": {
        "type": "Point",
        "coordinates": [
          2.7755609,
          48.8738905
        ]
      },
      "id": "node/3065584403"
    },
    {
      "type": "Feature",
      "properties": {
        "@id": "node/3667436280",
        "name": "Vidéopolis Theater",
        "operator": "Euro Disney SA",
        "tourism": "attraction"
      },
      "geometry": {
        "type": "Point",
        "coordinates": [
          2.7784906,
          48.8742787
        ]
      },
      "id": "node/3667436280"
    },
    {
      "type": "Feature",
      "properties": {
        "@id": "node/4232097203",
        "public_transport": "stop_position",
        "railway": "tram_stop",
        "tourism": "attraction",
        "tram": "yes"
      },
      "geometry": {
        "type": "Point",
        "coordinates": [
          2.7768025,
          48.8728267
        ]
      },
      "id": "node/4232097203"
    },
    {
      "type": "Feature",
      "properties": {
        "@id": "node/5040961551",
        "name": "Dumbo The Flying Elephant",
        "tourism": "attraction"
      },
      "geometry": {
        "type": "Point",
        "coordinates": [
          2.7745508,
          48.8740052
        ]
      },
      "id": "node/5040961551"
    },
    {
      "type": "Feature",
      "properties": {
        "@id": "node/5041144695",
        "addr:city": "Marne-la-Vallée",
        "addr:postcode": "77777",
        "addr:street": "Avenue Blanche Neige",
        "name": "Mickey et son Orchestre PhilharMagique",
        "tourism": "attraction",
        "website": "https://www.chroniquedisney.fr/parc/2018-mickey-orchestre-philharmagique.htm",
        "wikidata": "Q1858262",
        "wikipedia": "fr:Mickey's PhilharMagic"
      },
      "geometry": {
        "type": "Point",
        "coordinates": [
          2.7798202,
          48.8747256
        ]
      },
      "id": "node/5041144695"
    },
    {
      "type": "Feature",
      "properties": {
        "@id": "node/9418185128",
        "name": "Cars ROAD TRIP",
        "tourism": "attraction",
        "wheelchair": "yes",
        "wikidata": "Q124745277",
        "wikipedia": "fr:Cars Road Trip"
      },
      "geometry": {
        "type": "Point",
        "coordinates": [
          2.7747913,
          48.8664721
        ]
      },
      "id": "node/9418185128"
    },
    {
      "type": "Feature",
      "properties": {
        "@id": "node/9860326519",
        "name": "F.R.I.D.A.Y.",
        "tourism": "attraction"
      },
      "geometry": {
        "type": "Point",
        "coordinates": [
          2.7795633,
          48.8653129
        ]
      },
      "id": "node/9860326519"
    },
    {
      "type": "Feature",
      "properties": {
        "@id": "node/10235737797",
        "material": "metal",
        "name": "Tour à Fioul",
        "tourism": "attraction"
      },
      "geometry": {
        "type": "Point",
        "coordinates": [
          2.773652,
          48.8670825
        ]
      },
      "id": "node/10235737797"
    },
    {
      "type": "Feature",
      "properties": {
        "@id": "node/10237776187",
        "material": "metal",
        "name": "Le plus grand écrou du monde",
        "tourism": "attraction"
      },
      "geometry": {
        "type": "Point",
        "coordinates": [
          2.774458,
          48.867194
        ]
      },
      "id": "node/10237776187"
    },
    {
      "type": "Feature",
      "properties": {
        "@id": "node/10237776191",
        "name": "Copper Canyon Trafic Maze",
        "tourism": "attraction"
      },
      "geometry": {
        "type": "Point",
        "coordinates": [
          2.7738109,
          48.8681647
        ]
      },
      "id": "node/10237776191"
    },
    {
      "type": "Feature",
      "properties": {
        "@id": "node/10237776192",
        "name": "The Ghost Garage",
        "tourism": "attraction"
      },
      "geometry": {
        "type": "Point",
        "coordinates": [
          2.7738654,
          48.8680771
        ]
      },
      "id": "node/10237776192"
    },
    {
      "type": "Feature",
      "properties": {
        "@id": "node/10238931122",
        "name": "Cars-tastrophe Canyon",
        "tourism": "attraction"
      },
      "geometry": {
        "type": "Point",
        "coordinates": [
          2.7725473,
          48.8681291
        ]
      },
      "id": "node/10238931122"
    },
    {
      "type": "Feature",
      "properties": {
        "@id": "node/10242998367",
        "name": "Road Map",
        "tourism": "attraction"
      },
      "geometry": {
        "type": "Point",
        "coordinates": [
          2.7742947,
          48.8678136
        ]
      },
      "id": "node/10242998367"
    },
    {
      "type": "Feature",
      "properties": {
        "@id": "node/10706440859",
        "addr:housename": "Hollywood Tower Hotel Show Building",
        "attraction": "drop_tower;dark_ride",
        "name": "The Twilight Zone Tower of Terror",
        "tourism": "attraction",
        "wikidata": "Q1776103",
        "wikipedia": "fr:The Twilight Zone Tower of Terror"
      },
      "geometry": {
        "type": "Point",
        "coordinates": [
          2.7786375,
          48.8665525
        ]
      },
      "id": "node/10706440859"
    },
    {
      "type": "Feature",
      "properties": {
        "@id": "node/11251453535",
        "alt_name": "Space Mountain",
        "attraction": "roller_coaster",
        "duration": "00:02:18",
        "name": "Star Wars Hyperspace Mountain",
        "operator": "Euro Disney",
        "tourism": "attraction",
        "website": "https://www.disneylandparis.fr/attractions/parc-disneyland/space-mountain-mission-2/",
        "wikidata": "Q125670165",
        "wikipedia": "fr:Space Mountain (Disneyland Paris)"
      },
      "geometry": {
        "type": "Point",
        "coordinates": [
          2.7792857,
          48.874072
        ]
      },
      "id": "node/11251453535"
    },
    {
      "type": "Feature",
      "properties": {
        "@id": "node/11251510637",
        "attraction": "expo",
        "description": "Attraction d'après le film « Vingt Mille Lieues sous les Mers » (1954)",
        "name": "Les Mystères du Nautilus",
        "source": "Cadastre. Mise à jour : 2009; recalage bing",
        "tourism": "attraction",
        "website": "https://www.disneylandparis.fr/attractions/parc-disneyland/les-mysteres-du-nautilus/",
        "wheelchair": "yes",
        "wikidata": "Q3234087",
        "wikipedia": "fr:Les Mystères du Nautilus"
      },
      "geometry": {
        "type": "Point",
        "coordinates": [
          2.7795987,
          48.8734642
        ]
      },
      "id": "node/11251510637"
    },
    {
      "type": "Feature",
      "properties": {
        "@id": "node/11253398347",
        "name": "Meet Jack Skellington",
        "name:fr": "Rencontre avec Monsieur Jack",
        "tourism": "attraction"
      },
      "geometry": {
        "type": "Point",
        "coordinates": [
          2.7769631,
          48.8709558
        ]
      },
      "id": "node/11253398347"
    },
    {
      "type": "Feature",
      "properties": {
        "@id": "node/11253398352",
        "name": "Meet 'n' Greet with Rafiki",
        "name:fr": "Rencontre avec Rafiki",
        "tourism": "attraction"
      },
      "geometry": {
        "type": "Point",
        "coordinates": [
          2.7736877,
          48.8714019
        ]
      },
      "id": "node/11253398352"
    },
    {
      "type": "Feature",
      "properties": {
        "@id": "node/11263162318",
        "alt_name": "Studio No5",
        "duration": "00:02:20",
        "name": "Crush's Coaster",
        "source": "survey;BDOrtho IGN 2016",
        "tourism": "attraction",
        "website:en": "http://www.disneylandparis.fr/attractions/parc-walt-disney-studios/crushs-coaster/",
        "wheelchair": "no",
        "wikidata": "Q1142089",
        "wikipedia": "fr:Crush's Coaster"
      },
      "geometry": {
        "type": "Point",
        "coordinates": [
          2.7778898,
          48.8681109
        ]
      },
      "id": "node/11263162318"
    },
    {
      "type": "Feature",
      "properties": {
        "@id": "node/11272221311",
        "name": "Le galion du Capitaine Crochet",
        "name:en": "Captain Hook's Pirate Ship",
        "old_name": "Captain Hook's Pirate Ship",
        "source": "Yahoo;survey",
        "tourism": "attraction",
        "website": "https://www.disneylandparis.com/fr-fr/attractions/parc-disneyland/pirate-galleon/"
      },
      "geometry": {
        "type": "Point",
        "coordinates": [
          2.7737379,
          48.8729109
        ]
      },
      "id": "node/11272221311"
    },
    {
      "type": "Feature",
      "properties": {
        "@id": "node/11276030959",
        "capacity": "64",
        "duration": "00:01:30",
        "name": "Les Tapis Volants – Flying Carpets Over Agrabah",
        "source": "knowledge;bing calé",
        "tourism": "attraction",
        "website": "https://www.disneylandparis.fr/attractions/parc-walt-disney-studios/les-tapis-volants-flying-carpets-over-agrabah/",
        "wheelchair": "no",
        "wikidata": "Q2744001",
        "wikipedia": "fr:Tapis Volants d'Aladdin"
      },
      "geometry": {
        "type": "Point",
        "coordinates": [
          2.7783643,
          48.8682805
        ]
      },
      "id": "node/11276030959"
    },
    {
      "type": "Feature",
      "properties": {
        "@id": "node/11308499084",
        "duration": "00:10:00",
        "name": "It's a Small World",
        "operator": "Euro DIsney Associés S.A.S.",
        "tourism": "attraction",
        "website": "https://www.disneylandparis.fr/attractions/parc-disneyland/its-a-small-world/",
        "wikidata": "Q285105",
        "wikipedia": "fr:It's a Small World"
      },
      "geometry": {
        "type": "Point",
        "coordinates": [
          2.7760706,
          48.8748532
        ]
      },
      "id": "node/11308499084"
    },
    {
      "type": "Feature",
      "properties": {
        "@id": "node/11309892955",
        "name": "Grand Canyon Diorama",
        "source": "Cadastre. Mise à jour : 2010;survey",
        "tourism": "attraction",
        "wheelchair": "limited",
        "wikipedia": "fr:Grand Canyon Diorama"
      },
      "geometry": {
        "type": "Point",
        "coordinates": [
          2.7773924,
          48.8698594
        ]
      },
      "id": "node/11309892955"
    },
    {
      "type": "Feature",
      "properties": {
        "@id": "node/11309964890",
        "addr:city": "Marne-la-Vallée",
        "addr:postcode": "77777",
        "addr:street": "Avenue Blanche Neige",
        "attraction": "simulator",
        "construction": "yes",
        "duration": "00:04:30",
        "name": "Star Tours : l'Aventure Continue",
        "name:en": "Star Tours: The Adventure Continues",
        "source": "Cadastre. Mise à jour : 2009;bing;survey",
        "tourism": "attraction",
        "website": "https://www.disneylandparis.fr/attractions/parc-disneyland/star-tours/",
        "wikidata": "Q3496988",
        "wikipedia": "fr:Star Tours: The Adventures Continue"
      },
      "geometry": {
        "type": "Point",
        "coordinates": [
          2.7790507,
          48.8749098
        ]
      },
      "id": "node/11309964890"
    },
    {
      "type": "Feature",
      "properties": {
        "@id": "node/11309964892",
        "amenity": "theatre",
        "attraction": "show",
        "name": "Meet Mickey Mouse",
        "name:fr": "Rencontre avec Mickey Mouse",
        "old_name": "Fantasy Festival Stage",
        "source": "survey",
        "tourism": "attraction",
        "wall": "no",
        "website": "https://www.disneylandparis.fr/boutiques/parc-disneyland/meet-mickey-photographs/",
        "wheelchair": "yes"
      },
      "geometry": {
        "type": "Point",
        "coordinates": [
          2.7737718,
          48.87446
        ]
      },
      "id": "node/11309964892"
    },
    {
      "type": "Feature",
      "properties": {
        "@id": "node/11372019913",
        "name": "Meet 'n' Greet with Goofy",
        "name:fr": "Rencontre avec Dinguo",
        "tourism": "attraction"
      },
      "geometry": {
        "type": "Point",
        "coordinates": [
          2.7740196,
          48.8709643
        ]
      },
      "id": "node/11372019913"
    },
    {
      "type": "Feature",
      "properties": {
        "@id": "node/11807670770",
        "name": "Gateway Portal",
        "tourism": "attraction"
      },
      "geometry": {
        "type": "Point",
        "coordinates": [
          2.7797811,
          48.8663286
        ]
      },
      "id": "node/11807670770"
    }
  ]
}